{"type": "FeatureCollection", "features": [ {"type": "Feature", "properties": {"norad_id": 36011, "name": "IRIDIUM 33 DEB", "group": "iridium-33-debris", "lat": -71.98879883501887, "lon": -137.4066081493597, "alt_km": 756.6687407814479, "timestamp": "2025-12-22T11:33:20.825290+00:00", "meta": {"OBJECT_NAME": "IRIDIUM 33 DEB", "OBJECT_ID": "1997-051US", "EPOCH": "2025-12-20T20:53:54.330144", "MEAN_MOTION": 14.41351593, "ECCENTRICITY": 0.0018529, "INCLINATION": 86.3402, "RA_OF_ASC_NODE": 31.9321, "ARG_OF_PERICENTER": 188.5725, "MEAN_ANOMALY": 351.0197, "EPHEMERIS_TYPE": 0, "CLASSIFICATION_TYPE": "U", "NORAD_CAT_ID": 36011, "ELEMENT_SET_NO": 999, "REV_AT_EPOCH": 64657, "BSTAR": 0.00031216, "MEAN_MOTION_DOT": 1.032e-05, "MEAN_MOTION_DDOT": 0}, "tle": {"line1": "1 36011U 97051US  25354.87076771  .00001032  00000+0  31216-3 0  9996", "line2": "2 36011  86.3402  31.9321 0018529 188.5725 351.0197 14.41351593646576"}}, "geometry": {"type": "Point", "coordinates": [-137.4066081493597, -71.98879883501887]}}, {"type": "Feature", "properties": {"norad_id": 36012, "name": "IRIDIUM 33 DEB", "group": "iridium-33-debris", "lat": 62.33749226647613, "lon": 116.784108947113, "alt_km": 882.3133697829526, "timestamp": "2025-12-22T11:33:20.825321+00:00", "meta": {"OBJECT_NAME": "IRIDIUM 33 DEB", "OBJECT_ID": "1997-051UT", "EPOCH": "2025-12-21T14:40:45.615648", "MEAN_MOTION": 14.192189, "ECCENTRICITY": 0.021114, "INCLINATION": 86.4405, "RA_OF_ASC_NODE": 303.9547, "ARG_OF_PERICENTER": 234.6485, "MEAN_ANOMALY": 123.481, "EPHEMERIS_TYPE": 0, "CLASSIFICATION_TYPE": "U", "NORAD_CAT_ID": 36012, "ELEMENT_SET_NO": 999, "REV_AT_EPOCH": 65610, "BSTAR": 0.0033212, "MEAN_MOTION_DOT": 8.712e-05, "MEAN_MOTION_DDOT": 0}, "tle": {"line1": "1 36012U 97051UT  25355.61163907  .00008712  00000+0  33212-2 0  9997", "line2": "2 36012  86.4405 303.9547 0211140 234.6485 123.4810 14.19218900656105"}}, "geometry": {"type": "Point", "coordinates": [116.784108947113, 62.33749226647613]}}, {"type": "Feature", "properties": {"norad_id": 36028, "name": "IRIDIUM 33 DEB", "group": "iridium-33-debris", "lat": -3.2882389306373594, "lon": -58.097114683369895, "alt_km": 570.5108314911695, "timestamp": "2025-12-22T11:33:20.825338+00:00", "meta": {"OBJECT_NAME": "IRIDIUM 33 DEB", "OBJECT_ID": "1997-051VK", "EPOCH": "2025-12-19T03:17:05.091936", "MEAN_MOTION": 14.95591145, "ECCENTRICITY": 0.00208389, "INCLINATION": 86.3218, "RA_OF_ASC_NODE": 303.6882, "ARG_OF_PERICENTER": 33.6007, "MEAN_ANOMALY": 326.6539, "EPHEMERIS_TYPE": 0, "CLASSIFICATION_TYPE": "U", "NORAD_CAT_ID": 36028, "ELEMENT_SET_NO": 999, "REV_AT_EPOCH": 87220, "BSTAR": 0.001783846, "MEAN_MOTION_DOT": 0.00019939, "MEAN_MOTION_DDOT": 0}, "tle": {"line1": "1 36028U 97051VK  25353.13686449  .00019939  00000+0  17838-2 0  9999", "line2": "2 36028  86.3218 303.6882 0020838  33.6007 326.6539 14.95591145872206"}}, "geometry": {"type": "Point", "coordinates": [-58.097114683369895, -3.2882389306373594]}}, {"type": "Feature", "properties": {"norad_id": 36080, "name": "IRIDIUM 33 DEB", "group": "iridium-33-debris", "lat": -57.1450585248272, "lon": -1.9773909391875597, "alt_km": 757.24377345838, "timestamp": "2025-12-22T11:33:20.825350+00:00", "meta": {"OBJECT_NAME": "IRIDIUM 33 DEB", "OBJECT_ID": "1997-051VM", "EPOCH": "2025-12-19T07:27:26.572608", "MEAN_MOTION": 14.4663152, "ECCENTRICITY": 0.0018893, "INCLINATION": 86.3193, "RA_OF_ASC_NODE": 5.1242, "ARG_OF_PERICENTER": 135.9522, "MEAN_ANOMALY": 224.319, "EPHEMERIS_TYPE": 0, "CLASSIFICATION_TYPE": "U", "NORAD_CAT_ID": 36080, "ELEMENT_SET_NO": 999, "REV_AT_EPOCH": 47509, "BSTAR": 0.00042458, "MEAN_MOTION_DOT": 1.555e-05, "MEAN_MOTION_DDOT": 0}, "tle": {"line1": "1 36080U 97051VM  25353.31072422  .00001555  00000+0  42458-3 0  9999", "line2": "2 36080  86.3193   5.1242 0018893 135.9522 224.3190 14.46631520475097"}}, "geometry": {"type": "Point", "coordinates": [-1.9773909391875597, -57.1450585248272]}}, {"type": "Feature", "properties": {"norad_id": 36083, "name": "IRIDIUM 33 DEB", "group": "iridium-33-debris", "lat": -82.96271742134803, "lon": -1.2507013819552932, "alt_km": 753.984090988034, "timestamp": "2025-12-22T11:33:20.825360+00:00", "meta": {"OBJECT_NAME": "IRIDIUM 33 DEB", "OBJECT_ID": "1997-051VQ", "EPOCH": "2025-12-21T09:19:18.145344", "MEAN_MOTION": 14.43234813, "ECCENTRICITY": 0.00261912, "INCLINATION": 86.3424, "RA_OF_ASC_NODE": 30.4295, "ARG_OF_PERICENTER": 193.4541, "MEAN_ANOMALY": 166.5965, "EPHEMERIS_TYPE": 0, "CLASSIFICATION_TYPE": "U", "NORAD_CAT_ID": 36083, "ELEMENT_SET_NO": 999, "REV_AT_EPOCH": 85574, "BSTAR": 0.00039895396, "MEAN_MOTION_DOT": 1.367e-05, "MEAN_MOTION_DDOT": 0}, "tle": {"line1": "1 36083U 97051VQ  25355.38840446  .00001367  00000+0  39895-3 0  9992", "line2": "2 36083  86.3424  30.4295 0026191 193.4541 166.5965 14.43234813855748"}}, "geometry": {"type": "Point", "coordinates": [-1.2507013819552932, -82.96271742134803]}}, {"type": "Feature", "properties": {"norad_id": 36390, "name": "IRIDIUM 33 DEB", "group": "iridium-33-debris", "lat": 79.49682460888839, "lon": -44.598519190391585, "alt_km": 627.142888820079, "timestamp": "2025-12-22T11:33:20.825370+00:00", "meta": {"OBJECT_NAME": "IRIDIUM 33 DEB", "OBJECT_ID": "1997-051VU", "EPOCH": "2025-12-22T03:02:43.454976", "MEAN_MOTION": 14.73721752, "ECCENTRICITY": 0.0032064, "INCLINATION": 86.292, "RA_OF_ASC_NODE": 295.0892, "ARG_OF_PERICENTER": 130.5813, "MEAN_ANOMALY": 229.8203, "EPHEMERIS_TYPE": 0, "CLASSIFICATION_TYPE": "U", "NORAD_CAT_ID": 36390, "ELEMENT_SET_NO": 999, "REV_AT_EPOCH": 66400, "BSTAR": 0.0010853, "MEAN_MOTION_DOT": 7.17e-05, "MEAN_MOTION_DDOT": 0}, "tle": {"line1": "1 36390U 97051VU  25356.12689184  .00007170  00000+0  10853-2 0  9996", "line2": "2 36390  86.2920 295.0892 0032064 130.5813 229.8203 14.73721752664002"}}, "geometry": {"type": "Point", "coordinates": [-44.598519190391585, 79.49682460888839]}}, {"type": "Feature", "properties": {"norad_id": 36483, "name": "IRIDIUM 33 DEB", "group": "iridium-33-debris", "lat": 9.28202296524212, "lon": -132.27356863210898, "alt_km": 738.4834276975298, "timestamp": "2025-12-22T11:33:20.825381+00:00", "meta": {"OBJECT_NAME": "IRIDIUM 33 DEB", "OBJECT_ID": "1997-051VZ", "EPOCH": "2025-12-21T21:28:56.983872", "MEAN_MOTION": 14.45839576, "ECCENTRICITY": 0.0011389, "INCLINATION": 86.3785, "RA_OF_ASC_NODE": 48.5705, "ARG_OF_PERICENTER": 100.875, "MEAN_ANOMALY": 259.3734, "EPHEMERIS_TYPE": 0, "CLASSIFICATION_TYPE": "U", "NORAD_CAT_ID": 36483, "ELEMENT_SET_NO": 999, "REV_AT_EPOCH": 65278, "BSTAR": 0.00044994, "MEAN_MOTION_DOT": 1.617e-05, "MEAN_MOTION_DDOT": 0}, "tle": {"line1": "1 36483U 97051VZ  25355.89510398  .00001617  00000+0  44994-3 0  9996", "line2": "2 36483  86.3785  48.5705 0011389 100.8750 259.3734 14.45839576652788"}}, "geometry": {"type": "Point", "coordinates": [-132.27356863210898, 9.28202296524212]}}, {"type": "Feature", "properties": {"norad_id": 36490, "name": "IRIDIUM 33 DEB", "group": "iridium-33-debris", "lat": 53.974153759018435, "lon": 11.083746190507213, "alt_km": 632.1609302209199, "timestamp": "2025-12-22T11:33:20.825391+00:00", "meta": {"OBJECT_NAME": "IRIDIUM 33 DEB", "OBJECT_ID": "1997-051WG", "EPOCH": "2025-12-20T18:38:39.578208", "MEAN_MOTION": 14.76343752, "ECCENTRICITY": 0.00052455, "INCLINATION": 86.365, "RA_OF_ASC_NODE": 6.8378, "ARG_OF_PERICENTER": 65.8032, "MEAN_ANOMALY": 294.3734, "EPHEMERIS_TYPE": 0, "CLASSIFICATION_TYPE": "U", "NORAD_CAT_ID": 36490, "ELEMENT_SET_NO": 999, "REV_AT_EPOCH": 86603, "BSTAR": 0.00097886565, "MEAN_MOTION_DOT": 6.818e-05, "MEAN_MOTION_DDOT": 0}, "tle": {"line1": "1 36490U 97051WG  25354.77684697  .00006818  00000+0  97887-3 0  9991", "line2": "2 36490  86.3650   6.8378 0005245  65.8032 294.3734 14.76343752866031"}}, "geometry": {"type": "Point", "coordinates": [11.083746190507213, 53.974153759018435]}}, {"type": "Feature", "properties": {"norad_id": 36493, "name": "IRIDIUM 33 DEB", "group": "iridium-33-debris", "lat": -48.27279499720154, "lon": 3.2544169638130787, "alt_km": 676.7002907030237, "timestamp": "2025-12-22T11:33:20.825402+00:00", "meta": {"OBJECT_NAME": "IRIDIUM 33 DEB", "OBJECT_ID": "1997-051WK", "EPOCH": "2025-12-20T07:19:49.672128", "MEAN_MOTION": 14.65320442, "ECCENTRICITY": 0.00093315, "INCLINATION": 86.3566, "RA_OF_ASC_NODE": 8.3183, "ARG_OF_PERICENTER": 338.064, "MEAN_ANOMALY": 22.0172, "EPHEMERIS_TYPE": 0, "CLASSIFICATION_TYPE": "U", "NORAD_CAT_ID": 36493, "ELEMENT_SET_NO": 999, "REV_AT_EPOCH": 74629, "BSTAR": 0.0008112231, "MEAN_MOTION_DOT": 4.401e-05, "MEAN_MOTION_DDOT": 0}, "tle": {"line1": "1 36493U 97051WK  25354.30543602  .00004401  00000+0  81122-3 0  9994", "line2": "2 36493  86.3566   8.3183 0009331 338.0640  22.0172 14.65320442746297"}}, "geometry": {"type": "Point", "coordinates": [3.2544169638130787, -48.27279499720154]}}, {"type": "Feature", "properties": {"norad_id": 37548, "name": "IRIDIUM 33 DEB", "group": "iridium-33-debris", "lat": 9.808780842353181, "lon": 39.762437053045026, "alt_km": 738.146258539713, "timestamp": "2025-12-22T11:33:20.825412+00:00", "meta": {"OBJECT_NAME": "IRIDIUM 33 DEB", "OBJECT_ID": "1997-051XH", "EPOCH": "2025-12-15T20:39:30.861504", "MEAN_MOTION": 14.51326297, "ECCENTRICITY": 0.00258157, "INCLINATION": 86.3522, "RA_OF_ASC_NODE": 42.0105, "ARG_OF_PERICENTER": 178.4192, "MEAN_ANOMALY": 181.71, "EPHEMERIS_TYPE": 0, "CLASSIFICATION_TYPE": "U", "NORAD_CAT_ID": 37548, "ELEMENT_SET_NO": 999, "REV_AT_EPOCH": 65577, "BSTAR": 0.00067405053, "MEAN_MOTION_DOT": 2.715e-05, "MEAN_MOTION_DDOT": 0}, "tle": {"line1": "1 37548U 97051XH  25349.86077386  .00002715  00000+0  67405-3 0  9996", "line2": "2 37548  86.3522  42.0105 0025815 178.4192 181.7100 14.51326297655778"}}, "geometry": {"type": "Point", "coordinates": [39.762437053045026, 9.808780842353181]}}]}